0 BREEZE-M R/B
1 37751U 11035D   13286.92941378 -.00000195  00000-0  00000+0 0  3197
2 37751 001.8788 079.4924 0724835 278.8480 073.4447 01.12713520  9255
0 BREEZE-M R/B
1 37751U 11035D   13289.59083547 -.00000133  00000-0  00000+0 0  3202
2 37751 001.8840 079.4361 0724769 278.9614 073.3292 01.12712696  9288
0 BREEZE-M R/B
1 37751U 11035D   13292.25196751 -.00000154  00000-0  00000+0 0  3215
2 37751 001.8890 079.3817 0724729 279.0793 073.1031 01.12712847  9315
0 BREEZE-M R/B
1 37751U 11035D   13294.91309198 -.00000199  00000-0  00000+0 0  3221
2 37751 001.8942 079.3303 0724709 279.1982 072.8598 01.12713529  9347
